start=new Date('2023-06-22T00:00:00.000Z').valueOf();
sats=[{"PERIAPSIS":"546.213","COUNTRY_CODE":"US","CENTER_NAME":"EARTH","DECAY_DATE":null,"MEAN_MOTION":"15.06411660","GP_ID":"234432436","ECCENTRICITY":"0.00013930","FILE":"3939133","TIME_SYSTEM":"UTC","NORAD_CAT_ID":"48353","RCS_SIZE":"LARGE","PERIOD":"95.591","ARG_OF_PERICENTER":"94.8929","RA_OF_ASC_NODE":"136.5458","REF_FRAME":"TEME","SITE":"AFETR","TLE_LINE1":"1 48353U 21038A   23172.31785267  .00001402  00000-0  11297-3 0  9991","APOAPSIS":"548.143","EPHEMERIS_TYPE":"0","BSTAR":"0.00011297000000","MEAN_ELEMENT_THEORY":"SGP4","INCLINATION":"53.0545","REV_AT_EPOCH":"11745","CLASSIFICATION_TYPE":"U","MEAN_ANOMALY":"265.2219","ELEMENT_SET_NO":"999","EPOCH":"2023-06-21T07:37:42.470688","OBJECT_NAME":"STARLINK-2613","OBJECT_ID":"2021-038A","OBJECT_TYPE":"PAYLOAD","SEMIMAJOR_AXIS":"6925.313","LAUNCH_DATE":"2021-05-04","TLE_LINE2":"2 48353  53.0545 136.5458 0001393  94.8929 265.2219 15.06411660117451","MEAN_MOTION_DDOT":"0.0000000000000","MEAN_MOTION_DOT":"0.00001402"},{"LAUNCH_DATE":"2021-05-04","TLE_LINE2":"2 48354  53.0532 136.5646 0001158  90.0559 270.0562 15.06420029117457","MEAN_MOTION_DDOT":"0.0000000000000","MEAN_MOTION_DOT":"0.00005639","OBJECT_NAME":"STARLINK-2674","OBJECT_ID":"2021-038B","OBJECT_TYPE":"PAYLOAD","SEMIMAJOR_AXIS":"6925.287","CLASSIFICATION_TYPE":"U","MEAN_ANOMALY":"270.0562","ELEMENT_SET_NO":"999","EPOCH":"2023-06-21T07:32:23.913024","EPHEMERIS_TYPE":"0","BSTAR":"0.00039696000000","MEAN_ELEMENT_THEORY":"SGP4","INCLINATION":"53.0532","REV_AT_EPOCH":"11745","APOAPSIS":"547.954","NORAD_CAT_ID":"48354","PERIOD":"95.591","RCS_SIZE":"LARGE","ARG_OF_PERICENTER":"90.0559","RA_OF_ASC_NODE":"136.5646","SITE":"AFETR","REF_FRAME":"TEME","TLE_LINE1":"1 48354U 21038B   23172.31416566  .00005639  00000-0  39696-3 0  9994","TIME_SYSTEM":"UTC","PERIAPSIS":"546.350","COUNTRY_CODE":"US","CENTER_NAME":"EARTH","DECAY_DATE":null,"MEAN_MOTION":"15.06420029","GP_ID":"234433186","ECCENTRICITY":"0.00011580","FILE":"3939133"},{"GP_ID":"234433438","FILE":"3939133","ECCENTRICITY":"0.00015140","MEAN_MOTION":"15.06418112","CENTER_NAME":"EARTH","DECAY_DATE":null,"PERIAPSIS":"546.110","COUNTRY_CODE":"US","TIME_SYSTEM":"UTC","REF_FRAME":"TEME","SITE":"AFETR","TLE_LINE1":"1 48355U 21038C   23172.31048150  .00000998  00000-0  85819-4 0  9997","RA_OF_ASC_NODE":"136.5801","RCS_SIZE":"LARGE","PERIOD":"95.591","ARG_OF_PERICENTER":"90.9660","NORAD_CAT_ID":"48355","APOAPSIS":"548.207","INCLINATION":"53.0548","REV_AT_EPOCH":"11745","MEAN_ELEMENT_THEORY":"SGP4","EPHEMERIS_TYPE":"0","BSTAR":"0.00008581900000","EPOCH":"2023-06-21T07:27:05.601600","CLASSIFICATION_TYPE":"U","MEAN_ANOMALY":"269.1503","ELEMENT_SET_NO":"999","SEMIMAJOR_AXIS":"6925.293","OBJECT_TYPE":"PAYLOAD","OBJECT_NAME":"STARLINK-2635","OBJECT_ID":"2021-038C","MEAN_MOTION_DOT":"0.00000998","MEAN_MOTION_DDOT":"0.0000000000000","TLE_LINE2":"2 48355  53.0548 136.5801 0001514  90.9660 269.1503 15.06418112117450","LAUNCH_DATE":"2021-05-04"},{"MEAN_MOTION_DOT":"0.00002405","MEAN_MOTION_DDOT":"0.0000000000000","TLE_LINE2":"2 48356  53.0531 137.1937 0001309  84.7082 275.4056 15.06410973117439","LAUNCH_DATE":"2021-05-04","SEMIMAJOR_AXIS":"6925.315","OBJECT_TYPE":"PAYLOAD","OBJECT_ID":"2021-038D","OBJECT_NAME":"STARLINK-2637","EPOCH":"2023-06-21T04:10:42.687552","ELEMENT_SET_NO":"999","CLASSIFICATION_TYPE":"U","MEAN_ANOMALY":"275.4056","REV_AT_EPOCH":"11743","INCLINATION":"53.0531","MEAN_ELEMENT_THEORY":"SGP4","EPHEMERIS_TYPE":"0","BSTAR":"0.00018027000000","APOAPSIS":"548.086","TLE_LINE1":"1 48356U 21038D   23172.17410518  .00002405  00000-0  18027-3 0  9994","REF_FRAME":"TEME","SITE":"AFETR","RA_OF_ASC_NODE":"137.1937","PERIOD":"95.591","RCS_SIZE":"LARGE","ARG_OF_PERICENTER":"84.7082","NORAD_CAT_ID":"48356","TIME_SYSTEM":"UTC","ECCENTRICITY":"0.00013090","FILE":"3939133","GP_ID":"234433686","MEAN_MOTION":"15.06410973","DECAY_DATE":null,"CENTER_NAME":"EARTH","COUNTRY_CODE":"US","PERIAPSIS":"546.273"},{"TIME_SYSTEM":"UTC","MEAN_MOTION":"15.06412331","GP_ID":"234441987","FILE":"3939248","ECCENTRICITY":"0.00014060","PERIAPSIS":"546.202","COUNTRY_CODE":"US","CENTER_NAME":"EARTH","DECAY_DATE":null,"APOAPSIS":"548.149","RA_OF_ASC_NODE":"135.1382","REF_FRAME":"TEME","SITE":"AFETR","TLE_LINE1":"1 48357U 21038E   23172.63760035  .00005887  00000-0  41362-3 0  9993","NORAD_CAT_ID":"48357","RCS_SIZE":"LARGE","PERIOD":"95.591","ARG_OF_PERICENTER":"85.2336","MEAN_ANOMALY":"274.8814","CLASSIFICATION_TYPE":"U","ELEMENT_SET_NO":"999","EPOCH":"2023-06-21T15:18:08.670240","MEAN_ELEMENT_THEORY":"SGP4","INCLINATION":"53.0539","REV_AT_EPOCH":"11809","BSTAR":"0.00041362000000","EPHEMERIS_TYPE":"0","MEAN_MOTION_DOT":"0.00005887","MEAN_MOTION_DDOT":"0.0000000000000","LAUNCH_DATE":"2021-05-04","TLE_LINE2":"2 48357  53.0539 135.1382 0001406  85.2336 274.8814 15.06412331118094","OBJECT_TYPE":"PAYLOAD","SEMIMAJOR_AXIS":"6925.311","OBJECT_NAME":"STARLINK-2636","OBJECT_ID":"2021-038E"},{"APOAPSIS":"548.064","NORAD_CAT_ID":"48358","RCS_SIZE":"LARGE","PERIOD":"95.593","ARG_OF_PERICENTER":"88.3214","RA_OF_ASC_NODE":"135.1390","REF_FRAME":"TEME","SITE":"AFETR","TLE_LINE1":"1 48358U 21038F   23172.63118236 -.00000574  00000-0 -19631-4 0  9999","TIME_SYSTEM":"UTC","PERIAPSIS":"546.420","COUNTRY_CODE":"US","CENTER_NAME":"EARTH","DECAY_DATE":null,"MEAN_MOTION":"15.06390714","GP_ID":"234441566","FILE":"3939256","ECCENTRICITY":"0.00011870","LAUNCH_DATE":"2021-05-04","TLE_LINE2":"2 48358  53.0543 135.1390 0001187  88.3214 271.7911 15.06390714118087","MEAN_MOTION_DDOT":"0.0000000000000","MEAN_MOTION_DOT":"-0.00000574","OBJECT_NAME":"STARLINK-2624","OBJECT_ID":"2021-038F","OBJECT_TYPE":"PAYLOAD","SEMIMAJOR_AXIS":"6925.377","CLASSIFICATION_TYPE":"U","MEAN_ANOMALY":"271.7911","ELEMENT_SET_NO":"999","EPOCH":"2023-06-21T15:08:54.155904","EPHEMERIS_TYPE":"0","BSTAR":"-0.00001963100000","MEAN_ELEMENT_THEORY":"SGP4","REV_AT_EPOCH":"11808","INCLINATION":"53.0543"},{"APOAPSIS":"548.335","SITE":"AFETR","REF_FRAME":"TEME","TLE_LINE1":"1 48359U 21038G   23172.62748866  .00000387  00000-0  44869-4 0  9998","RA_OF_ASC_NODE":"135.1594","PERIOD":"95.593","RCS_SIZE":"LARGE","ARG_OF_PERICENTER":"74.0108","NORAD_CAT_ID":"48359","TIME_SYSTEM":"UTC","GP_ID":"234441498","ECCENTRICITY":"0.00015840","FILE":"3939255","MEAN_MOTION":"15.06391893","CENTER_NAME":"EARTH","DECAY_DATE":null,"COUNTRY_CODE":"US","PERIAPSIS":"546.141","MEAN_MOTION_DOT":"0.00000387","MEAN_MOTION_DDOT":"0.0000000000000","TLE_LINE2":"2 48359  53.0542 135.1594 0001584  74.0108 286.1055 15.06391893118738","LAUNCH_DATE":"2021-05-04","SEMIMAJOR_AXIS":"6925.373","OBJECT_TYPE":"PAYLOAD","OBJECT_NAME":"STARLINK-2628","OBJECT_ID":"2021-038G","EPOCH":"2023-06-21T15:03:35.020224","MEAN_ANOMALY":"286.1055","CLASSIFICATION_TYPE":"U","ELEMENT_SET_NO":"999","INCLINATION":"53.0542","REV_AT_EPOCH":"11873","MEAN_ELEMENT_THEORY":"SGP4","EPHEMERIS_TYPE":"0","BSTAR":"0.00004486900000"},{"MEAN_MOTION_DDOT":"0.0000000000000","MEAN_MOTION_DOT":"0.00001629","TLE_LINE2":"2 48360  53.0533 135.1731 0001502  85.1688 274.9472 15.06401515118088","LAUNCH_DATE":"2021-05-04","SEMIMAJOR_AXIS":"6925.344","OBJECT_TYPE":"PAYLOAD","OBJECT_ID":"2021-038H","OBJECT_NAME":"STARLINK-2622","EPOCH":"2023-06-21T14:58:15.776544","ELEMENT_SET_NO":"999","MEAN_ANOMALY":"274.9472","CLASSIFICATION_TYPE":"U","REV_AT_EPOCH":"11808","INCLINATION":"53.0533","MEAN_ELEMENT_THEORY":"SGP4","BSTAR":"0.00012824000000","EPHEMERIS_TYPE":"0","APOAPSIS":"548.249","TLE_LINE1":"1 48360U 21038H   23172.62379371  .00001629  00000-0  12824-3 0  9996","SITE":"AFETR","REF_FRAME":"TEME","RA_OF_ASC_NODE":"135.1731","PERIOD":"95.592","RCS_SIZE":"LARGE","ARG_OF_PERICENTER":"85.1688","NORAD_CAT_ID":"48360","TIME_SYSTEM":"UTC","FILE":"3939314","ECCENTRICITY":"0.00015020","GP_ID":"234443701","MEAN_MOTION":"15.06401515","DECAY_DATE":null,"CENTER_NAME":"EARTH","PERIAPSIS":"546.169","COUNTRY_CODE":"US"},{"BSTAR":"0.00008932800000","EPHEMERIS_TYPE":"0","MEAN_ELEMENT_THEORY":"SGP4","REV_AT_EPOCH":"11808","INCLINATION":"53.0546","ELEMENT_SET_NO":"999","MEAN_ANOMALY":"263.5227","CLASSIFICATION_TYPE":"U","EPOCH":"2023-06-21T14:52:57.788256","OBJECT_ID":"2021-038J","OBJECT_NAME":"STARLINK-2591","OBJECT_TYPE":"PAYLOAD","SEMIMAJOR_AXIS":"6925.358","LAUNCH_DATE":"2021-05-04","TLE_LINE2":"2 48361  53.0546 135.1933 0001383  96.5919 263.5227 15.06396868118083","MEAN_MOTION_DOT":"0.00001049","MEAN_MOTION_DDOT":"0.0000000000000","PERIAPSIS":"546.265","COUNTRY_CODE":"US","DECAY_DATE":null,"CENTER_NAME":"EARTH","MEAN_MOTION":"15.06396868","FILE":"3939250","ECCENTRICITY":"0.00013830","GP_ID":"234442020","TIME_SYSTEM":"UTC","NORAD_CAT_ID":"48361","RCS_SIZE":"LARGE","ARG_OF_PERICENTER":"96.5919","PERIOD":"95.592","RA_OF_ASC_NODE":"135.1933","TLE_LINE1":"1 48361U 21038J   23172.62011329  .00001049  00000-0  89328-4 0  9993","REF_FRAME":"TEME","SITE":"AFETR","APOAPSIS":"548.181"},{"OBJECT_TYPE":"PAYLOAD","SEMIMAJOR_AXIS":"6925.299","OBJECT_ID":"2021-038K","OBJECT_NAME":"STARLINK-2578","MEAN_MOTION_DDOT":"0.0000000000000","MEAN_MOTION_DOT":"0.00006351","LAUNCH_DATE":"2021-05-04","TLE_LINE2":"2 48362  53.0523 136.6189 0001439  90.0781 270.0373 15.06416116117450","MEAN_ELEMENT_THEORY":"SGP4","REV_AT_EPOCH":"11745","INCLINATION":"53.0523","BSTAR":"0.00044466000000","EPHEMERIS_TYPE":"0","ELEMENT_SET_NO":"999","MEAN_ANOMALY":"270.0373","CLASSIFICATION_TYPE":"U","EPOCH":"2023-06-21T07:43:02.362368","RA_OF_ASC_NODE":"136.6189","TLE_LINE1":"1 48362U 21038K   23172.32155512  .00006351  00000-0  44466-3 0  9998","REF_FRAME":"TEME","SITE":"AFETR","NORAD_CAT_ID":"48362","ARG_OF_PERICENTER":"90.0781","RCS_SIZE":"LARGE","PERIOD":"95.591","APOAPSIS":"548.161","MEAN_MOTION":"15.06416116","ECCENTRICITY":"0.00014390","FILE":"3939133","GP_ID":"234433187","PERIAPSIS":"546.168","COUNTRY_CODE":"US","DECAY_DATE":null,"CENTER_NAME":"EARTH","TIME_SYSTEM":"UTC"}];
